[{"NAME": "DAILEY, MARY ", "RELATION": "Sister", "ADDRESS": "HARVEY, IL. 60426 (708) 339-9146", "STATE": "Illinois", "PINCODE": "60426"}, {"NAME": "DAILEY, LEON ", "RELATION": "Sister", "ADDRESS": "CHICAGO, IL 60628 (773)785-1829", "STATE": "Illinois", "PINCODE": "60628"}, {"NAME": "DAGDIGIAN, ROSE", "RELATION": "Son", "ADDRESS": "6219 UL. FOREST GLENN CHICAGO,IL 60646", "STATE": "Illinois", "PINCODE": "60646"}, {"NAME": "DALAS ,KATHELEEN", "RELATION": "Daughter", "ADDRESS": "6253 S. MICHIGAN AVE. IL 60637", "STATE": "Illinois", "PINCODE": "60637"}, {"NAME": "DAENITZ, CELLIA E.", "RELATION": "Son", "ADDRESS": "11030 GERMAN CT. WILLOW SPRINGS, IL 60480", "STATE": "Illinois", "PINCODE": "60480"}, {"NAME": "DAILEY, SARA", "RELATION": "Son", "ADDRESS": "7334 S. WHIPPLE, CHGO., IL 60629", "STATE": "Illinois", "PINCODE": "60629"}, {"NAME": "DAINTY, KATHERINE", "RELATION": "Son", "ADDRESS": "371 Fourth St,Prairie du Sac, Wis 53578", "STATE": "Wisconsin", "PINCODE": "53578"}, {"NAME": "DAILEY, ROSA AMANDA", "RELATION": "Daughter", "ADDRESS": "CHICAGO, IL 60649", "STATE": "Illinois", "PINCODE": "60649"}, {"NAME": "DADE, CHONI C. ", "RELATION": "Parents", "ADDRESS": "AIWANES CHICAGO, IL. 60652", "STATE": "Illinois", "PINCODE": "60652"}, {"NAME": "DAFFIN, DORRA O'STAR ", "RELATION": "Mom", "ADDRESS": "MEMANNS CHICAGO, IL 60619 (773)752-1247", "STATE": "Illinois", "PINCODE": "60619"}, {"NAME": "DADE, EDMOND W. ", "RELATION": "Uncle", "ADDRESS": "CHICAGO, IL. 60619 (773) 731-4030", "STATE": "Illinois", "PINCODE": "60619"}, {"NAME": "DAILEY, LEON JR.", "RELATION": "Son", "ADDRESS": "1245 W. MORRIS, CHGO., IL 50626", "STATE": "Illinois", "PINCODE": "50626"}, {"NAME": "DABNEY, FLORENCE S.", "RELATION": "Daughter", "ADDRESS": "RERARES BROOKLYN, N.Y. 11265", "STATE": "New York", "PINCODE": "11265"}, {"NAME": "DAILEY, JAE NABA", "RELATION": "Father", "ADDRESS": "VALPARISO, IN 46385", "STATE": "Indiana", "PINCODE": "46385"}, {"NAME": "DABNEY, THOMAS", "RELATION": "Wife", "ADDRESS": "9531 S$. PRAIRIE, CHGO., IL 60628", "STATE": "Illinois", "PINCODE": "60628"}]